{"fetched_at":"2026-05-23T02:51:48Z","count":9990,"tles":[{"name":"STARLINK-31616","line1":"1 59270U 24050S   26142.41832618  .00000864  00000+0  41316-4 0  9998","line2":"2 59270  53.1620 198.7508 0001098  75.7396 284.3726 15.30187201121830","category":"Starlink"},{"name":"STARLINK-35019","line1":"1 65513U 25198X   26142.13628588  .00017394  00000+0  52493-3 0  9990","line2":"2 65513  53.1554 289.2339 0002336  91.1358 268.9912 15.34387488 39877","category":"Starlink"},{"name":"STARLINK-36999","line1":"1 68268U 26055G   26142.52213485  .00031319  00000+0  93365-3 0  9998","line2":"2 68268  53.1588 334.9720 0001788  91.7842 268.3366 15.34418382 11257","category":"Starlink"},{"name":"COSMOS 2251 DEB","line1":"1 34395U 93036QL  23178.52746948  .00023107  00000+0  32867-2 0  9991","line2":"2 34395  74.0348 267.8141 0008368  76.5071 294.8185 14.76774196757381","category":"Other"},{"name":"STARLINK-3149","line1":"1 49423U 21104R   26090.58604844  .06916951  12407-4  43625-3 0  9994","line2":"2 49423  53.2016 106.2536 0002429 309.8154  50.2681 16.41188408242271","category":"Starlink"},{"name":"STARLINK-32242","line1":"1 60429U 24144E   26142.53847614 -.00000209  00000+0  50630-5 0  9999","line2":"2 60429  53.1614 234.2633 0000834  65.5926 294.5162 15.30190568100653","category":"Starlink"},{"name":"STARLINK-35870","line1":"1 66572U 25268R   26142.42869751  .00011877  00000+0  44031-3 0  9994","line2":"2 66572  42.9980 290.9369 0000767 286.9085  73.1683 15.27587180 29234","category":"Starlink"},{"name":"GLOBALSTAR M050","line1":"1 25908U 99049B   26105.13452918 -.00000015  00000+0  83047-3 0  9993","line2":"2 25908  52.0024   8.0018 0008444 275.4180 230.9753 12.07466181184663","category":"Other"},{"name":"RFTSAT","line1":"1 44417U 19022G   23171.86341016  .11213361  12434-4  51136-3 0  9992","line2":"2 44417  51.6088  69.8882 0007672 250.6845 109.3353 16.42798603217575","category":"Other"},{"name":"STARLINK-5270","line1":"1 55299U 23010AG  26142.39922119 -.00000213  00000+0 -10042-4 0  9995","line2":"2 55299  69.9987 198.4646 0003535 266.8093  93.2661 14.98332617185193","category":"Starlink"},{"name":"FENGYUN 1C DEB","line1":"1 31905U 99025CLG 26104.43040995  .00001036  00000+0  31689-3 0  9999","line2":"2 31905  99.1656  92.8233 0195519  97.2369 265.1084 14.33717878983824","category":"Weather"},{"name":"ONEWEB-0193","line1":"1 48238U 21031AE  26142.41786451  .00000131  00000+0  32005-3 0  9990","line2":"2 48238  87.8940 294.8386 0001889  83.7665 276.3680 13.14503366244929","category":"Other"},{"name":"YAOGAN-40 01A","line1":"1 57830U 23139A   26142.64972588  .00000115  00000+0  52093-4 0  9994","line2":"2 57830  85.9897 271.4132 0001842  95.7890 264.3503 14.12441842139090","category":"Other"},{"name":"FENGYUN 1C DEB","line1":"1 35140U 99025DLU 26104.68782332  .00000222  00000+0  81652-4 0  9991","line2":"2 35140  98.4622  86.0581 0290152 328.4071  29.9967 14.21492235890257","category":"Weather"},{"name":"FLOCK 4X-10","line1":"1 51037U 22002BF  23361.74589899  .00029057  00000+0  82534-3 0  9993","line2":"2 51037  97.4195  70.8905 0005615 276.0131  84.0473 15.36129296108468","category":"Other"},{"name":"GEESAT-2 04","line1":"1 58908U 24023D   26142.32294841  .00001249  00000+0  12910-3 0  9990","line2":"2 58908  49.9933  85.6893 0006506 299.5856  60.4439 14.97035779125454","category":"Other"},{"name":"ARIANE 2 DEB","line1":"1 28563U 88098L   26103.95123225  .00000076  00000+0 -23873-3 0  9997","line2":"2 28563   3.2895 116.4777 7238245 303.2443  86.5433  2.07241277173895","category":"Other"},{"name":"ONEWEB-0051","line1":"1 45155U 20008AA  26142.60253887  .00000200  00000+0  52960-3 0  9990","line2":"2 45155  87.8908  26.1569 0001867  82.5959 277.5381 13.11413957307739","category":"Other"},{"name":"STARLINK-30047","line1":"1 55709U 23026Q   23362.19044796 -.00022419  00000+0 -15748-3 0  9992","line2":"2 55709  42.9989 255.7525 0002152 247.3882 112.6759 15.72859286 48718","category":"Starlink"},{"name":"TITAN 3C TRANSTAGE DEB","line1":"1 38700U 68081AA  26103.69198429 -.00000024  00000+0  00000+0 0  9996","line2":"2 38700   2.1150  62.3053 0122322 212.3861 147.1416  1.02729220 63933","category":"Other"},{"name":"STARLINK-4284","line1":"1 53023U 22076AP  26142.31982197  .00000057  00000+0  21698-4 0  9996","line2":"2 53023  53.2177 113.5752 0001525  71.6649 288.4509 15.08843021214106","category":"Starlink"},{"name":"STARLINK-32008","line1":"1 60028U 24111N   26142.55222761 -.00000132  00000+0  76800-5 0  9992","line2":"2 60028  53.1605  92.4326 0001293  94.4285 265.6863 15.30195720110349","category":"Starlink"},{"name":"UNKNOWN","line1":"1 81390U          26103.01871420 -.00000365  00000+0 -23597-2 0  9999","line2":"2 81390 103.1045   4.8024 0173650 294.1928  64.1065 12.35603265515075","category":"Other"},{"name":"FENGYUN 1C DEB","line1":"1 31012U 99025BDE 26104.22940391  .00000185  00000+0  90461-4 0  9992","line2":"2 31012  98.9033   9.7530 0081104 256.0250 263.3382 14.27990006994950","category":"Weather"},{"name":"STARLINK-2111","line1":"1 47390U 21005AT  26142.55442957  .00000006  00000+0  11959-4 0  9991","line2":"2 47390  53.1620  82.8023 0001268  89.9661 270.1486 15.31701546294287","category":"Starlink"},{"name":"STARLINK-6262","line1":"1 57091U 23088AV  26142.05858611 -.00000098  00000+0  59662-5 0  9992","line2":"2 57091  43.0049  41.5577 0001400 262.6211  97.4481 15.27588426161726","category":"Starlink"},{"name":"SJ-19 DEB","line1":"1 61505U 24177C   24292.31661204  .04774915  42759-1  64047-2 0  9998","line2":"2 61505  41.5930  28.7319 0012063  32.1081 328.0510 16.09404383  1107","category":"Other"},{"name":"2025-313AE","line1":"1 67276U 25313AE  26142.45556060  .00005016  00000+0  22029-3 0  9997","line2":"2 67276  97.3907 217.4162 0015491  98.2878 262.0116 15.22273583 22033","category":"Other"},{"name":"COSMOS 1500","line1":"1 14372U 83099A   25163.02008995  .12617911 -12821-5  17091-3 0  9995","line2":"2 14372  82.4518 299.7243 0012295 276.1066 202.9749 16.48578677282734","category":"Other"},{"name":"STARLINK-5023","line1":"1 53919U 22119AK  26142.55120985  .00000291  00000+0  31732-4 0  9993","line2":"2 53919  53.2169 341.2799 0001192  92.8368 267.2763 15.14837495202991","category":"Starlink"},{"name":"STARLINK-34451","line1":"1 64433U 25129X   26142.26020776  .00002681  00000+0  23239-3 0  9992","line2":"2 64433  69.9999 249.1044 0003428 269.1855  90.8911 14.98335884 52244","category":"Starlink"},{"name":"FENGYUN 1C DEB","line1":"1 32094U 99025CQL 26100.91917808  .00000570  00000+0  33987-3 0  9999","line2":"2 32094  98.7555  93.2193 0033720 291.4266  68.3310 14.10911923960457","category":"Weather"},{"name":"STARLINK-2512","line1":"1 48319U 21036AV  26142.11103350  .00000763  00000+0  36336-4 0  9996","line2":"2 48319  53.1600 119.6692 0001407  89.3298 270.7865 15.31702636279284","category":"Starlink"},{"name":"STARLINK-30479","line1":"1 57898U 23146H   26142.36733986  .00011125  00000+0  41394-3 0  9996","line2":"2 57898  43.0068 258.1669 0001841 258.5967 101.4678 15.27520714148322","category":"Starlink"},{"name":"COSMOS 2251 DEB","line1":"1 35278U 93036AJG 23178.35602495  .00015068  00000+0  27325-2 0  9991","line2":"2 35278  74.0422  33.8336 0040018 295.5878 238.1909 14.65744852746228","category":"Other"},{"name":"STARLINK-3394","line1":"1 51118U 22005Q   26142.47576653  .00000999  00000+0  80885-4 0  9992","line2":"2 51118  53.2175 317.8818 0001247  99.4629 260.6504 15.08834058240012","category":"Starlink"},{"name":"STARLINK-31351","line1":"1 58972U 24031H   26142.49183011  .00000560  00000+0  31036-4 0  9990","line2":"2 58972  53.1607 313.8162 0001130  81.3462 278.7666 15.30196711127824","category":"Starlink"},{"name":"JAY-C","line1":"1 62668U 25009BM  26142.54795957  .00002609  00000+0  11673-3 0  9997","line2":"2 62668  97.3959 221.8878 0006000  77.0669 283.1238 15.22156636132470","category":"Other"},{"name":"STARLINK-37205","line1":"1 68332U 26059M   26142.63005024  .00011491  00000+0  39947-3 0  9999","line2":"2 68332  53.1582   5.0111 0001148  84.0029 276.1103 15.30200850  9499","category":"Starlink"},{"name":"GENESIS 1","line1":"1 29252U 06029A   25183.69207012  .07669060  80586-5  17140-3 0  9995","line2":"2 29252  64.4742 276.9705 0017693 300.1504 154.0455 16.44812741 50045","category":"Other"},{"name":"XJS E","line1":"1 45251U 20014C   23362.48289279  .00099112  00000+0  10659-2 0  9993","line2":"2 45251  35.0330  20.2639 0009506 170.0170 190.0747 15.62393357216866","category":"Other"},{"name":"PRAETORIAN SDA_614","line1":"1 65577U 25203N   26142.16876020  .00000083  00000+0  63346-4 0  9993","line2":"2 65577  81.3031  34.7187 0006135 263.0529  96.9930 13.84775015 35117","category":"Other"},{"name":"GREENCUBE","line1":"1 53106U 22080B   25051.21822557 -.00000003  00000+0  00000+0 0  9994","line2":"2 53106  70.1434 106.3440 0008542  48.0089 312.1297  6.42557744 61200","category":"Other"},{"name":"STARLINK-31239","line1":"1 60093U 24117C   26142.63277654  .00001010  00000+0  46246-4 0  9995","line2":"2 60093  53.1611  53.9411 0001266  81.7904 278.3240 15.30190354108202","category":"Starlink"},{"name":"FENGYUN 1C DEB","line1":"1 31094U 99025BGQ 26104.37390213  .00001265  00000+0  80599-3 0  9990","line2":"2 31094  98.8525 333.8306 0106670  65.6956 295.5307 14.02656179973381","category":"Weather"},{"name":"FLOCK 4S-18","line1":"1 47496U 21006CM  23361.73825649  .00027132  00000+0  73622-3 0  9995","line2":"2 47496  97.3682  60.8873 0008642 106.2105 254.0092 15.37546171162386","category":"Other"},{"name":"FALCON 9 DEB","line1":"1 57157U 23090BJ  23219.80815495  .06759766  94590-5  38382-3 0  9991","line2":"2 57157  43.0051 359.2460 0012332 306.9787  52.9977 16.41420797  7243","category":"Other"},{"name":"QIANFAN-36","line1":"1 61569U 24185T   26142.57694663  .00000125  00000+0  16268-3 0  9991","line2":"2 61569  88.9806  64.2716 0004566 312.4622  47.6145 13.55630491 89714","category":"Other"}]}